[{"OBJECT_NAME":"STARLINK-31533","OBJECT_ID":"2024-071X","EPOCH":"2026-03-09T03:01:51.218400","MEAN_MOTION":15.275669,"ECCENTRICITY":4.807e-5,"INCLINATION":43.0048,"RA_OF_ASC_NODE":343.426,"ARG_OF_PERICENTER":318.9202,"MEAN_ANOMALY":41.1613,"EPHEMERIS_TYPE":0,"CLASSIFICATION_TYPE":"U","NORAD_CAT_ID":59505,"ELEMENT_SET_NO":999,"REV_AT_EPOCH":10811,"BSTAR":-8.6332291e-5,"MEAN_MOTION_DOT":-2.636e-5,"MEAN_MOTION_DDOT":0},{"OBJECT_NAME":"CZ-6A DEB","OBJECT_ID":"2023-168D","EPOCH":"2026-03-09T19:03:52.964928","MEAN_MOTION":15.28240044,"ECCENTRICITY":0.00013417,"INCLINATION":97.7802,"RA_OF_ASC_NODE":98.3362,"ARG_OF_PERICENTER":174.0661,"MEAN_ANOMALY":186.0594,"EPHEMERIS_TYPE":0,"CLASSIFICATION_TYPE":"U","NORAD_CAT_ID":58202,"ELEMENT_SET_NO":999,"REV_AT_EPOCH":12922,"BSTAR":0.0014474773,"MEAN_MOTION_DOT":0.00039923,"MEAN_MOTION_DDOT":0}]
